{
  "norad_id": 63904,
  "name": "STARLINK-34092",
  "history": [
    {
      "epoch": "2026-03-28T15:28:15.828960Z",
      "apogee_km": 483.6895911979391,
      "perigee_km": 482.36538645159544,
      "latitude_deg": -2.4338670150369262e-05,
      "longitude_deg": 11.310210213220849,
      "height_km": 482.7523997434404,
      "semi_major_axis_km": 6861.164488824767,
      "eccentricity": 9.65e-05,
      "inclination_deg": 43.0008,
      "raan_deg": 69.4383,
      "arg_perigee_deg": 274.4623,
      "mean_anomaly_deg": 85.6118,
      "mean_motion_rev_day": 15.27587216
    }
  ]
}