{"fetched_at":"2026-03-30T06:02:59Z","count":15439,"tles":[{"name":"STARLINK-34092","line1":"1 63904U 25095Q   26087.64462765  .00036561  00000+0  13313-2 0  9999","line2":"2 63904  43.0008  69.4383 0000965 274.4623  85.6118 15.27587216 50671","category":"Starlink"}]}